{
  "type": "FeatureCollection",
  "features": [
    {
      "type": "Feature",
      "properties": {
        "norad_id": 41823,
        "name": "FENGYUN 1C DEB",
        "group": "fengyun-1c-debris",
        "lat": -62.25602087001807,
        "lon": -156.1858509627439,
        "alt_km": 782.8287193137949,
        "timestamp": "2025-12-03T08:58:46.292395+00:00",
        "meta_object_name": "FENGYUN 1C DEB",
        "meta_object_id": "1999-025EYA",
        "meta_epoch": "2025-12-03T02:46:27.926400",
        "meta_mean_motion": 14.23411276,
        "meta_eccentricity": 0.0054167,
        "meta_inclination": 98.7219,
        "meta_ra_of_asc_node": 40.5267,
        "meta_arg_of_pericenter": 256.0412,
        "meta_mean_anomaly": 103.4739,
        "meta_ephemeris_type": 0,
        "meta_classification_type": "U",
        "meta_norad_cat_id": 41823,
        "meta_element_set_no": 999,
        "meta_rev_at_epoch": 47221,
        "meta_bstar": 0.0020087,
        "meta_mean_motion_dot": 4.587e-05,
        "meta_mean_motion_ddot": 0,
        "tle_line1": "1 41823U 99025EYA 25337.11560100  .00004587  00000+0  20087-2 0  9999",
        "tle_line2": "2 41823  98.7219  40.5267 0054167 256.0412 103.4739 14.23411276472217"
      },
      "geometry": {
        "type": "Point",
        "coordinates": [
          -156.1858509627439,
          -62.25602087001807
        ]
      }
    },
    {
      "type": "Feature",
      "properties": {
        "norad_id": 41824,
        "name": "FENGYUN 1C DEB",
        "group": "fengyun-1c-debris",
        "lat": 80.7594970761499,
        "lon": -29.416447624051308,
        "alt_km": 843.7932280026207,
        "timestamp": "2025-12-03T08:58:46.292406+00:00",
        "meta_object_name": "FENGYUN 1C DEB",
        "meta_object_id": "1999-025EYB",
        "meta_epoch": "2025-12-03T03:30:36.467424",
        "meta_mean_motion": 14.24047096,
        "meta_eccentricity": 0.0056438,
        "meta_inclination": 98.7333,
        "meta_ra_of_asc_node": 41.2364,
        "meta_arg_of_pericenter": 254.7318,
        "meta_mean_anomaly": 104.7617,
        "meta_ephemeris_type": 0,
        "meta_classification_type": "U",
        "meta_norad_cat_id": 41824,
        "meta_element_set_no": 999,
        "meta_rev_at_epoch": 47223,
        "meta_bstar": 0.0020826,
        "meta_mean_motion_dot": 4.823e-05,
        "meta_mean_motion_ddot": 0,
        "tle_line1": "1 41824U 99025EYB 25337.14625541  .00004823  00000+0  20826-2 0  9998",
        "tle_line2": "2 41824  98.7333  41.2364 0056438 254.7318 104.7617 14.24047096472231"
      },
      "geometry": {
        "type": "Point",
        "coordinates": [
          -29.416447624051308,
          80.7594970761499
        ]
      }
    },
    {
      "type": "Feature",
      "properties": {
        "norad_id": 41825,
        "name": "FENGYUN 1C DEB",
        "group": "fengyun-1c-debris",
        "lat": -77.07185926633487,
        "lon": 88.53006435785696,
        "alt_km": 782.7136361016892,
        "timestamp": "2025-12-03T08:58:46.292416+00:00",
        "meta_object_name": "FENGYUN 1C DEB",
        "meta_object_id": "1999-025EYC",
        "meta_epoch": "2025-11-26T03:46:33.202272",
        "meta_mean_motion": 14.24905851,
        "meta_eccentricity": 0.00545151,
        "meta_inclination": 98.7423,
        "meta_ra_of_asc_node": 39.2502,
        "meta_arg_of_pericenter": 268.2468,
        "meta_mean_anomaly": 91.2466,
        "meta_ephemeris_type": 0,
        "meta_classification_type": "U",
        "meta_norad_cat_id": 41825,
        "meta_element_set_no": 999,
        "meta_rev_at_epoch": 47112,
        "meta_bstar": 0.0019288716,
        "meta_mean_motion_dot": 4.534e-05,
        "meta_mean_motion_ddot": 0,
        "tle_line1": "1 41825U 99025EYC 25330.15732873  .00004534  00000+0  19289-2 0  9990",
        "tle_line2": "2 41825  98.7423  39.2502 0054515 268.2468  91.2466 14.24905851471124"
      },
      "geometry": {
        "type": "Point",
        "coordinates": [
          88.53006435785696,
          -77.07185926633487
        ]
      }
    },
    {
      "type": "Feature",
      "properties": {
        "norad_id": 41826,
        "name": "FENGYUN 1C DEB",
        "group": "fengyun-1c-debris",
        "lat": -62.31885419143315,
        "lon": 60.27404050754448,
        "alt_km": 792.7534606814606,
        "timestamp": "2025-12-03T08:58:46.292426+00:00",
        "meta_object_name": "FENGYUN 1C DEB",
        "meta_object_id": "1999-025EYD",
        "meta_epoch": "2025-11-26T15:20:38.448096",
        "meta_mean_motion": 14.23588409,
        "meta_eccentricity": 0.00545194,
        "meta_inclination": 98.735,
        "meta_ra_of_asc_node": 36.5456,
        "meta_arg_of_pericenter": 270.1742,
        "meta_mean_anomaly": 89.3189,
        "meta_ephemeris_type": 0,
        "meta_classification_type": "U",
        "meta_norad_cat_id": 41826,
        "meta_element_set_no": 999,
        "meta_rev_at_epoch": 47131,
        "meta_bstar": 0.0016457098,
        "meta_mean_motion_dot": 3.763e-05,
        "meta_mean_motion_ddot": 0,
        "tle_line1": "1 41826U 99025EYD 25330.63933389  .00003763  00000+0  16457-2 0  9996",
        "tle_line2": "2 41826  98.7350  36.5456 0054519 270.1742  89.3189 14.23588409471319"
      },
      "geometry": {
        "type": "Point",
        "coordinates": [
          60.27404050754448,
          -62.31885419143315
        ]
      }
    },
    {
      "type": "Feature",
      "properties": {
        "norad_id": 41827,
        "name": "FENGYUN 1C DEB",
        "group": "fengyun-1c-debris",
        "lat": 39.83759575508008,
        "lon": -126.00947216411973,
        "alt_km": 812.3158767065706,
        "timestamp": "2025-12-03T08:58:46.292437+00:00",
        "meta_object_name": "FENGYUN 1C DEB",
        "meta_object_id": "1999-025EYE",
        "meta_epoch": "2025-12-03T03:15:58.951008",
        "meta_mean_motion": 14.25147211,
        "meta_eccentricity": 0.0057613,
        "meta_inclination": 98.7443,
        "meta_ra_of_asc_node": 46.3759,
        "meta_arg_of_pericenter": 240.8985,
        "meta_mean_anomaly": 118.6418,
        "meta_ephemeris_type": 0,
        "meta_classification_type": "U",
        "meta_norad_cat_id": 41827,
        "meta_element_set_no": 999,
        "meta_rev_at_epoch": 47194,
        "meta_bstar": 0.0022456,
        "meta_mean_motion_dot": 5.321e-05,
        "meta_mean_motion_ddot": 0,
        "tle_line1": "1 41827U 99025EYE 25337.13609897  .00005321  00000+0  22456-2 0  9991",
        "tle_line2": "2 41827  98.7443  46.3759 0057613 240.8985 118.6418 14.25147211471943"
      },
      "geometry": {
        "type": "Point",
        "coordinates": [
          -126.00947216411973,
          39.83759575508008
        ]
      }
    },
    {
      "type": "Feature",
      "properties": {
        "norad_id": 41828,
        "name": "FENGYUN 1C DEB",
        "group": "fengyun-1c-debris",
        "lat": -52.03542311584553,
        "lon": -86.76595500298494,
        "alt_km": 704.3052846501978,
        "timestamp": "2025-12-03T08:58:46.292447+00:00",
        "meta_object_name": "FENGYUN 1C DEB",
        "meta_object_id": "1999-025EYF",
        "meta_epoch": "2025-12-02T20:19:31.468800",
        "meta_mean_motion": 14.51050287,
        "meta_eccentricity": 0.0040325,
        "meta_inclination": 98.9216,
        "meta_ra_of_asc_node": 104.2891,
        "meta_arg_of_pericenter": 204.1346,
        "meta_mean_anomaly": 155.7959,
        "meta_ephemeris_type": 0,
        "meta_classification_type": "U",
        "meta_norad_cat_id": 41828,
        "meta_element_set_no": 999,
        "meta_rev_at_epoch": 47320,
        "meta_bstar": 0.0068161,
        "meta_mean_motion_dot": 0.00027328,
        "meta_mean_motion_ddot": 0,
        "tle_line1": "1 41828U 99025EYF 25336.84689200  .00027328  00000+0  68161-2 0  9999",
        "tle_line2": "2 41828  98.9216 104.2891 0040325 204.1346 155.7959 14.51050287473209"
      },
      "geometry": {
        "type": "Point",
        "coordinates": [
          -86.76595500298494,
          -52.03542311584553
        ]
      }
    },
    {
      "type": "Feature",
      "properties": {
        "norad_id": 41829,
        "name": "FENGYUN 1C DEB",
        "group": "fengyun-1c-debris",
        "lat": -66.11677014165078,
        "lon": 66.96622670840665,
        "alt_km": 787.8507047362245,
        "timestamp": "2025-12-03T08:58:46.292457+00:00",
        "meta_object_name": "FENGYUN 1C DEB",
        "meta_object_id": "1999-025EYG",
        "meta_epoch": "2025-12-03T02:33:19.814112",
        "meta_mean_motion": 14.25007997,
        "meta_eccentricity": 0.0055919,
        "meta_inclination": 98.7463,
        "meta_ra_of_asc_node": 46.3543,
        "meta_arg_of_pericenter": 246.6872,
        "meta_mean_anomaly": 112.8416,
        "meta_ephemeris_type": 0,
        "meta_classification_type": "U",
        "meta_norad_cat_id": 41829,
        "meta_element_set_no": 999,
        "meta_rev_at_epoch": 47170,
        "meta_bstar": 0.0021279,
        "meta_mean_motion_dot": 5.021e-05,
        "meta_mean_motion_ddot": 0,
        "tle_line1": "1 41829U 99025EYG 25337.10647933  .00005021  00000+0  21279-2 0  9992",
        "tle_line2": "2 41829  98.7463  46.3543 0055919 246.6872 112.8416 14.25007997471708"
      },
      "geometry": {
        "type": "Point",
        "coordinates": [
          66.96622670840665,
          -66.11677014165078
        ]
      }
    }
  ]
}